STARLINK-2039           
1 47655U 21012AM  26068.28616796  .00011854  00000+0  41147-3 0  9998
2 47655  53.1608  66.9388 0001524  96.2115 263.9059 15.30220490280020
TEVEL2-8                
1 63239U 25052AF  26068.66815442  .00019130  00000+0  69304-3 0  9993
2 63239  97.4055 324.2923 0008031 124.9191 235.2804 15.28392908 54807
