[{"OBJECT_NAME":"STARLINK-2039","OBJECT_ID":"2021-012AM","EPOCH":"2026-03-09T06:52:04.911744","MEAN_MOTION":15.3022049,"ECCENTRICITY":0.00015243,"INCLINATION":53.1608,"RA_OF_ASC_NODE":66.9388,"ARG_OF_PERICENTER":96.2115,"MEAN_ANOMALY":263.9059,"EPHEMERIS_TYPE":0,"CLASSIFICATION_TYPE":"U","NORAD_CAT_ID":47655,"ELEMENT_SET_NO":999,"REV_AT_EPOCH":28002,"BSTAR":0.00041146881,"MEAN_MOTION_DOT":0.00011854,"MEAN_MOTION_DDOT":0},{"OBJECT_NAME":"TEVEL2-8","OBJECT_ID":"2025-052AF","EPOCH":"2026-03-09T16:02:08.542752","MEAN_MOTION":15.28392908,"ECCENTRICITY":0.0008031,"INCLINATION":97.4055,"RA_OF_ASC_NODE":324.2923,"ARG_OF_PERICENTER":124.9191,"MEAN_ANOMALY":235.2804,"EPHEMERIS_TYPE":0,"CLASSIFICATION_TYPE":"U","NORAD_CAT_ID":63239,"ELEMENT_SET_NO":999,"REV_AT_EPOCH":5480,"BSTAR":0.00069303947,"MEAN_MOTION_DOT":0.0001913,"MEAN_MOTION_DDOT":0}]
